YAOGAN-3                
1 32289U 07055A   26179.00070543  .00000582  00000+0  64761-4 0  9997
2 32289  97.8153 208.7716 0001731  81.0338 279.1076 14.90818163  7487
YAOGAN-4                
1 33446U 08061A   26178.82616825  .00001010  00000+0  13000-3 0  9995
2 33446  97.9306 112.2579 0015265  40.8015 319.4338 14.83220166947240
YAOGAN-7                
1 36110U 09069A   26178.92065761  .00000465  00000+0  71392-4 0  9995
2 36110  98.0060  64.7209 0024811   8.0777 352.0829 14.78019988891214
YAOGAN-21               
1 40143U 14053A   26178.91347771  .00006934  00000+0  26773-3 0  9997
2 40143  97.1475 218.6886 0009522  63.1202 297.1010 15.26526535656599
YAOGAN-22               
1 40275U 14063A   26178.83283604 -.00000020  00000+0  72091-4 0  9995
2 40275 100.7737 330.2834 0006576 161.8680 198.2667 13.15531306561214
YAOGAN-24               
1 40310U 14072A   26178.92732503  .00000142  00000+0  28318-4 0  9999
2 40310  98.1494 316.3566 0013339 227.1493 132.8597 14.76096139625309
YAOGAN-26               
1 40362U 14088A   26178.93195699  .00033147  00000+0  63866-3 0  9990
2 40362  97.0637 178.8914 0004733  40.9704 319.1902 15.47787216639368
YAOGAN-27               
1 40878U 15040A   26178.97555822 -.00000459  00000+0 -10983-2 0  9996
2 40878 100.1151 164.8899 0008017 184.5329 175.5713 13.16069505519089
YAOGAN-28               
1 41026U 15064A   26178.93529973  .00007070  00000+0  26455-3 0  9998
2 41026  97.3084 316.9788 0011521 147.0251 213.1710 15.27552710592329
YAOGAN-29               
1 41038U 15069A   26178.97267684  .00000645  00000+0  85907-4 0  9997
2 41038  98.0027 207.6220 0001991  38.9108 321.2249 14.83093980572228
