{
 "generated_at": "2026-06-28T08:21:54Z",
 "sources": [
  {
   "name": "CelesTrak",
   "url": "https://celestrak.org/NORAD/elements/",
   "license": "frei verfügbar; Attribution. Ursprünglich USSPACECOM/Space-Track."
  },
  {
   "name": "GCAT (J. McDowell, planet4589.org)",
   "url": "https://planet4589.org/space/gcat/",
   "license": "CC-BY 4.0"
  }
 ],
 "satellites": [
  {
   "norad": 40143,
   "name": "YAOGAN-21",
   "intl": "2014-053A",
   "group": "resource",
   "gcat": {
    "class": "D",
    "category": "IMG",
    "owner": "ZZB",
    "state": "CN"
   },
   "omm": {
    "OBJECT_NAME": "YAOGAN-21",
    "OBJECT_ID": "2014-053A",
    "EPOCH": "2026-06-27T21:55:24.474144",
    "MEAN_MOTION": 15.26526535,
    "ECCENTRICITY": 0.00095224,
    "INCLINATION": 97.1475,
    "RA_OF_ASC_NODE": 218.6886,
    "ARG_OF_PERICENTER": 63.1202,
    "MEAN_ANOMALY": 297.101,
    "EPHEMERIS_TYPE": 0,
    "CLASSIFICATION_TYPE": "U",
    "NORAD_CAT_ID": 40143,
    "ELEMENT_SET_NO": 999,
    "REV_AT_EPOCH": 65659,
    "BSTAR": 0.00026772992,
    "MEAN_MOTION_DOT": 0.00006934,
    "MEAN_MOTION_DDOT": 0
   }
  },
  {
   "norad": 40275,
   "name": "YAOGAN-22",
   "intl": "2014-063A",
   "group": "resource",
   "gcat": {
    "class": null,
    "category": null,
    "owner": null,
    "state": null
   },
   "omm": {
    "OBJECT_NAME": "YAOGAN-22",
    "OBJECT_ID": "2014-063A",
    "EPOCH": "2026-06-27T19:59:17.033856",
    "MEAN_MOTION": 13.15531306,
    "ECCENTRICITY": 0.00065768,
    "INCLINATION": 100.7737,
    "RA_OF_ASC_NODE": 330.2834,
    "ARG_OF_PERICENTER": 161.868,
    "MEAN_ANOMALY": 198.2667,
    "EPHEMERIS_TYPE": 0,
    "CLASSIFICATION_TYPE": "U",
    "NORAD_CAT_ID": 40275,
    "ELEMENT_SET_NO": 999,
    "REV_AT_EPOCH": 56121,
    "BSTAR": 0.000072091322,
    "MEAN_MOTION_DOT": -2e-7,
    "MEAN_MOTION_DDOT": 0
   }
  },
  {
   "norad": 40310,
   "name": "YAOGAN-24",
   "intl": "2014-072A",
   "group": "resource",
   "gcat": {
    "class": "D",
    "category": "IMG",
    "owner": "ZZB",
    "state": "CN"
   },
   "omm": {
    "OBJECT_NAME": "YAOGAN-24",
    "OBJECT_ID": "2014-072A",
    "EPOCH": "2026-06-27T22:15:20.882592",
    "MEAN_MOTION": 14.76096139,
    "ECCENTRICITY": 0.00133393,
    "INCLINATION": 98.1494,
    "RA_OF_ASC_NODE": 316.3566,
    "ARG_OF_PERICENTER": 227.1493,
    "MEAN_ANOMALY": 132.8597,
    "EPHEMERIS_TYPE": 0,
    "CLASSIFICATION_TYPE": "U",
    "NORAD_CAT_ID": 40310,
    "ELEMENT_SET_NO": 999,
    "REV_AT_EPOCH": 62530,
    "BSTAR": 0.000028318306,
    "MEAN_MOTION_DOT": 0.00000142,
    "MEAN_MOTION_DDOT": 0
   }
  },
  {
   "norad": 40362,
   "name": "YAOGAN-26",
   "intl": "2014-088A",
   "group": "resource",
   "gcat": {
    "class": "D",
    "category": "IMG",
    "owner": "ZZB",
    "state": "CN"
   },
   "omm": {
    "OBJECT_NAME": "YAOGAN-26",
    "OBJECT_ID": "2014-088A",
    "EPOCH": "2026-06-27T22:22:01.083936",
    "MEAN_MOTION": 15.47787216,
    "ECCENTRICITY": 0.00047334,
    "INCLINATION": 97.0637,
    "RA_OF_ASC_NODE": 178.8914,
    "ARG_OF_PERICENTER": 40.9704,
    "MEAN_ANOMALY": 319.1902,
    "EPHEMERIS_TYPE": 0,
    "CLASSIFICATION_TYPE": "U",
    "NORAD_CAT_ID": 40362,
    "ELEMENT_SET_NO": 999,
    "REV_AT_EPOCH": 63936,
    "BSTAR": 0.00063866389,
    "MEAN_MOTION_DOT": 0.00033147,
    "MEAN_MOTION_DDOT": 0
   }
  },
  {
   "norad": 40878,
   "name": "YAOGAN-27",
   "intl": "2015-040A",
   "group": "resource",
   "gcat": {
    "class": "D",
    "category": "IMG",
    "owner": "ZZB",
    "state": "CN"
   },
   "omm": {
    "OBJECT_NAME": "YAOGAN-27",
    "OBJECT_ID": "2015-040A",
    "EPOCH": "2026-06-27T23:24:48.230208",
    "MEAN_MOTION": 13.16069505,
    "ECCENTRICITY": 0.0008017,
    "INCLINATION": 100.1151,
    "RA_OF_ASC_NODE": 164.8899,
    "ARG_OF_PERICENTER": 184.5329,
    "MEAN_ANOMALY": 175.5713,
    "EPHEMERIS_TYPE": 0,
    "CLASSIFICATION_TYPE": "U",
    "NORAD_CAT_ID": 40878,
    "ELEMENT_SET_NO": 999,
    "REV_AT_EPOCH": 51908,
    "BSTAR": -0.0010983113,
    "MEAN_MOTION_DOT": -0.00000459,
    "MEAN_MOTION_DDOT": 0
   }
  },
  {
   "norad": 41026,
   "name": "YAOGAN-28",
   "intl": "2015-064A",
   "group": "resource",
   "gcat": {
    "class": "D",
    "category": "IMG",
    "owner": "ZZB",
    "state": "CN"
   },
   "omm": {
    "OBJECT_NAME": "YAOGAN-28",
    "OBJECT_ID": "2015-064A",
    "EPOCH": "2026-06-27T22:26:49.896672",
    "MEAN_MOTION": 15.2755271,
    "ECCENTRICITY": 0.00115217,
    "INCLINATION": 97.3084,
    "RA_OF_ASC_NODE": 316.9788,
    "ARG_OF_PERICENTER": 147.0251,
    "MEAN_ANOMALY": 213.171,
    "EPHEMERIS_TYPE": 0,
    "CLASSIFICATION_TYPE": "U",
    "NORAD_CAT_ID": 41026,
    "ELEMENT_SET_NO": 999,
    "REV_AT_EPOCH": 59232,
    "BSTAR": 0.00026455364,
    "MEAN_MOTION_DOT": 0.0000707,
    "MEAN_MOTION_DDOT": 0
   }
  },
  {
   "norad": 41038,
   "name": "YAOGAN-29",
   "intl": "2015-069A",
   "group": "resource",
   "gcat": {
    "class": "D",
    "category": "IMG-R",
    "owner": "ZZB",
    "state": "CN"
   },
   "omm": {
    "OBJECT_NAME": "YAOGAN-29",
    "OBJECT_ID": "2015-069A",
    "EPOCH": "2026-06-27T23:20:39.278976",
    "MEAN_MOTION": 14.8309398,
    "ECCENTRICITY": 0.00019918,
    "INCLINATION": 98.0027,
    "RA_OF_ASC_NODE": 207.622,
    "ARG_OF_PERICENTER": 38.9108,
    "MEAN_ANOMALY": 321.2249,
    "EPHEMERIS_TYPE": 0,
    "CLASSIFICATION_TYPE": "U",
    "NORAD_CAT_ID": 41038,
    "ELEMENT_SET_NO": 999,
    "REV_AT_EPOCH": 57222,
    "BSTAR": 0.000085906689,
    "MEAN_MOTION_DOT": 0.00000645,
    "MEAN_MOTION_DDOT": 0
   }
  },
  {
   "norad": 32289,
   "name": "YAOGAN-3",
   "intl": "2007-055A",
   "group": "resource",
   "gcat": {
    "class": null,
    "category": null,
    "owner": null,
    "state": null
   },
   "omm": {
    "OBJECT_NAME": "YAOGAN-3",
    "OBJECT_ID": "2007-055A",
    "EPOCH": "2026-06-28T00:01:00.949152",
    "MEAN_MOTION": 14.90818163,
    "ECCENTRICITY": 0.00017319,
    "INCLINATION": 97.8153,
    "RA_OF_ASC_NODE": 208.7716,
    "ARG_OF_PERICENTER": 81.0338,
    "MEAN_ANOMALY": 279.1076,
    "EPHEMERIS_TYPE": 0,
    "CLASSIFICATION_TYPE": "U",
    "NORAD_CAT_ID": 32289,
    "ELEMENT_SET_NO": 999,
    "REV_AT_EPOCH": 748,
    "BSTAR": 0.000064761358,
    "MEAN_MOTION_DOT": 0.00000582,
    "MEAN_MOTION_DDOT": 0
   }
  },
  {
   "norad": 33446,
   "name": "YAOGAN-4",
   "intl": "2008-061A",
   "group": "resource",
   "gcat": {
    "class": null,
    "category": null,
    "owner": null,
    "state": null
   },
   "omm": {
    "OBJECT_NAME": "YAOGAN-4",
    "OBJECT_ID": "2008-061A",
    "EPOCH": "2026-06-27T19:49:40.936800",
    "MEAN_MOTION": 14.83220166,
    "ECCENTRICITY": 0.00152655,
    "INCLINATION": 97.9306,
    "RA_OF_ASC_NODE": 112.2579,
    "ARG_OF_PERICENTER": 40.8015,
    "MEAN_ANOMALY": 319.4338,
    "EPHEMERIS_TYPE": 0,
    "CLASSIFICATION_TYPE": "U",
    "NORAD_CAT_ID": 33446,
    "ELEMENT_SET_NO": 999,
    "REV_AT_EPOCH": 94724,
    "BSTAR": 0.00012999788,
    "MEAN_MOTION_DOT": 0.0000101,
    "MEAN_MOTION_DDOT": 0
   }
  },
  {
   "norad": 36110,
   "name": "YAOGAN-7",
   "intl": "2009-069A",
   "group": "resource",
   "gcat": {
    "class": null,
    "category": null,
    "owner": null,
    "state": null
   },
   "omm": {
    "OBJECT_NAME": "YAOGAN-7",
    "OBJECT_ID": "2009-069A",
    "EPOCH": "2026-06-27T22:05:44.817504",
    "MEAN_MOTION": 14.78019988,
    "ECCENTRICITY": 0.00248116,
    "INCLINATION": 98.006,
    "RA_OF_ASC_NODE": 64.7209,
    "ARG_OF_PERICENTER": 8.0777,
    "MEAN_ANOMALY": 352.0829,
    "EPHEMERIS_TYPE": 0,
    "CLASSIFICATION_TYPE": "U",
    "NORAD_CAT_ID": 36110,
    "ELEMENT_SET_NO": 999,
    "REV_AT_EPOCH": 89121,
    "BSTAR": 0.000071392259,
    "MEAN_MOTION_DOT": 0.00000465,
    "MEAN_MOTION_DDOT": 0
   }
  }
 ]
}
